{
  "type": "FeatureCollection",
  "features": [
    {
      "type": "Feature",
      "properties": { "name": "Zeeland" },
      "geometry": {
        "type": "Polygon",
        "coordinates": [[[3.3, 51.5], [4.3, 51.5], [4.3, 51.0], [3.3, 51.0], [3.3, 51.5]]]
      }
    },
    {
      "type": "Feature",
      "properties": { "name": "Noord Brabant" },
      "geometry": {
        "type": "Polygon",
        "coordinates": [[[4.0, 52.0], [5.5, 52.0], [5.5, 51.2], [4.0, 51.2], [4.0, 52.0]]]
      }
    },
    {
      "type": "Feature",
      "properties": { "name": "Limburg (NL)" },
      "geometry": {
        "type": "Polygon",
        "coordinates": [[[5.5, 51.8], [6.2, 51.8], [6.2, 50.8], [5.5, 50.8], [5.5, 51.8]]]
      }
    },
    {
      "type": "Feature",
      "properties": { "name": "East Flanders" },
      "geometry": {
        "type": "Polygon",
        "coordinates": [[[3.3, 51.2], [4.1, 51.2], [4.1, 50.8], [3.3, 50.8], [3.3, 51.2]]]
      }
    },
    {
      "type": "Feature",
      "properties": { "name": "West Flanders" },
      "geometry": {
        "type": "Polygon",
        "coordinates": [[[2.4, 51.2], [3.3, 51.2], [3.3, 50.8], [2.4, 50.8], [2.4, 51.2]]]
      }
    },
    {
      "type": "Feature",
      "properties": { "name": "Flemish Brabant" },
      "geometry": {
        "type": "Polygon",
        "coordinates": [[[4.1, 51.0], [5.0, 51.0], [5.0, 50.5], [4.1, 50.5], [4.1, 51.0]]]
      }
    },
    {
      "type": "Feature",
      "properties": { "name": "Antwerp Province" },
      "geometry": {
        "type": "Polygon",
        "coordinates": [[[4.1, 51.5], [5.1, 51.5], [5.1, 51.0], [4.1, 51.0], [4.1, 51.5]]]
      }
    },
    {
      "type": "Feature",
      "properties": { "name": "Limburg (BE)" },
      "geometry": {
        "type": "Polygon",
        "coordinates": [[[5.1, 51.3], [6.0, 51.3], [6.0, 50.7], [5.1, 50.7], [5.1, 51.3]]]
      }
    }
  ]
}

