{"type": "FeatureCollection", "features": [{"type": "Feature", "properties": {"NUTS_ID": "BE23", "LEVL_CODE": 2, "CNTR_CODE": "BE", "NAME_LATN": "Prov. Oost-Vlaanderen", "NUTS_NAME": "Prov. Oost-Vlaanderen", "MOUNT_TYPE": 0, "URBN_TYPE": 0, "COAST_TYPE": 0, "name": "East Flanders"}, "geometry": {"type": "Polygon", "coordinates": [[[4.306697151000037, 51.276833373000045], [4.327238931000068, 51.16990106800006], [4.307828500000028, 51.12503449900004], [4.175792, 51.101211499000044], [4.200686670000039, 51.04433979200007], [4.240999, 51.036868999000035], [4.147153, 50.96939849900008], [4.156586646000051, 50.92929111500007], [4.136884818000055, 50.919428692000054], [4.105211423000071, 50.929446702000064], [4.059373975000028, 50.79689095400005], [3.895736500000055, 50.73294449900004], [3.815390500000035, 50.750724999000056], [3.775676500000031, 50.747892499000045], [3.719250698000053, 50.77502437600003], [3.629244429000039, 50.72643333500008], [3.541272500000048, 50.733700499000065], [3.460305500000061, 50.76589899900006], [3.513324886000021, 50.80823581200008], [3.466746500000056, 50.90209649900004], [3.419824, 50.91093499900006], [3.448829964000026, 50.94026391400007], [3.439757166000049, 51.025948639000035], [3.331306, 51.09887299900004], [3.41093, 51.15988899900003], [3.380661, 51.27429949900005], [3.500282427000059, 51.24675065500003], [3.534311144000071, 51.28951247100008], [3.601747522000039, 51.300566880000076], [3.856339500000047, 51.21105599900005], [3.977666500000055, 51.22513199900004], [4.105211423000071, 51.265399184000046], [4.165755500000046, 51.29272849900008], [4.215951889000053, 51.33309281500004], [4.234817500000077, 51.348253999000065], [4.242049, 51.35396699900008], [4.306697151000037, 51.276833373000045]]]}}, {"type": "Feature", "properties": {"NUTS_ID": "BE24", "LEVL_CODE": 2, "CNTR_CODE": "BE", "NAME_LATN": "Prov. Vlaams-Brabant", "NUTS_NAME": "Prov. Vlaams-Brabant", "MOUNT_TYPE": 0, "URBN_TYPE": 0, "COAST_TYPE": 0, "name": "Flemish Brabant"}, "geometry": {"type": "Polygon", "coordinates": [[[4.789319, 51.03892899900006], [4.829276431000039, 51.01502451500005], [4.981574500000022, 51.03488549900004], [5.121158865000041, 51.02007690900007], [5.063702797000076, 50.94088406900005], [5.168050987000072, 50.886300239000036], [5.103480500000046, 50.70906399900008], [5.019566500000053, 50.750761999000076], [4.758841337000035, 50.802515321000044], [4.663417674000073, 50.788489982000044], [4.628439431000061, 50.74957404400004], [4.597269, 50.76353449900006], [4.272625355000059, 50.69617141400005], [4.105211423000071, 50.70754573000005], [3.93947815000007, 50.691163808000056], [3.895736500000055, 50.73294449900004], [4.059373975000028, 50.79689095400005], [4.105211423000071, 50.929446702000064], [4.136884818000055, 50.919428692000054], [4.156586646000051, 50.92929111500007], [4.147153, 50.96939849900008], [4.240999, 51.036868999000035], [4.528663, 50.99226449900004], [4.789319, 51.03892899900006]], [[4.258377456000062, 50.82243428900006], [4.371403134000047, 50.76824504800004], [4.480476500000066, 50.79425799900008], [4.476783500000067, 50.820377499000074], [4.401441737000027, 50.90614777700006], [4.307760760000065, 50.89041663100005], [4.258377456000062, 50.82243428900006]]]}}, {"type": "Feature", "properties": {"NUTS_ID": "BE25", "LEVL_CODE": 2, "CNTR_CODE": "BE", "NAME_LATN": "Prov. West-Vlaanderen", "NUTS_NAME": "Prov. West-Vlaanderen", "MOUNT_TYPE": 0, "URBN_TYPE": 0, "COAST_TYPE": 0, "name": "West Flanders"}, "geometry": {"type": "Polygon", "coordinates": [[[3.513324886000021, 50.80823581200008], [3.460305500000061, 50.76589899900006], [3.324118, 50.72230899900006], [3.296718818000045, 50.75089163300004], [3.195384601000058, 50.75535462300007], [3.176996, 50.75616449900008], [3.098481, 50.77901899900007], [3.018708500000059, 50.773532999000054], [3.00188150300005, 50.805183783000075], [2.95436782500002, 50.79747689100003], [2.941700869000044, 50.769000841000036], [2.852976651000063, 50.75047708000005], [2.863276, 50.70834349900008], [2.706694563000042, 50.80992868000004], [2.636143225000069, 50.820798952000075], [2.607036, 50.91268949900007], [2.622620769000036, 50.956608231000075], [2.546011, 51.08938199900007], [2.604628, 51.110095999000066], [2.651029188000052, 51.12914785400005], [2.679293830000063, 51.13612051800004], [2.703774, 51.144825499000035], [2.749051500000064, 51.16176999900006], [3.110688500000037, 51.31225949900005], [3.195384601000058, 51.35501530700003], [3.365787500000067, 51.36983549900003], [3.380661, 51.27429949900005], [3.41093, 51.15988899900003], [3.331306, 51.09887299900004], [3.439757166000049, 51.025948639000035], [3.448829964000026, 50.94026391400007], [3.419824, 50.91093499900006], [3.466746500000056, 50.90209649900004], [3.513324886000021, 50.80823581200008]]]}}, {"type": "Feature", "properties": {"NUTS_ID": "BE21", "LEVL_CODE": 2, "CNTR_CODE": "BE", "NAME_LATN": "Prov. Antwerpen", "NUTS_NAME": "Prov. Antwerpen", "MOUNT_TYPE": 0, "URBN_TYPE": 0, "COAST_TYPE": 0, "name": "Antwerp Province"}, "geometry": {"type": "Polygon", "coordinates": [[[4.828632453000068, 51.48026361900003], [4.841045910000048, 51.427809988000035], [4.899390513000071, 51.40588742800003], [5.041508126000053, 51.47912345900005], [5.10218, 51.42900499900003], [5.087797335000062, 51.382296376000056], [5.144811685000036, 51.32092401400007], [5.225900459000059, 51.30946306000004], [5.237716500000033, 51.26160049900005], [5.219441446000076, 51.22582278900006], [5.261073500000066, 51.14696499900003], [5.020244329000036, 51.07216528500004], [4.981574500000022, 51.03488549900004], [4.829276431000039, 51.01502451500005], [4.789319, 51.03892899900006], [4.528663, 50.99226449900004], [4.240999, 51.036868999000035], [4.200686670000039, 51.04433979200007], [4.175792, 51.101211499000044], [4.307828500000028, 51.12503449900004], [4.327238931000068, 51.16990106800006], [4.306697151000037, 51.276833373000045], [4.242049, 51.35396699900008], [4.243669500000067, 51.37472949900007], [4.279565, 51.376017499000056], [4.405944964000071, 51.36515723600007], [4.389655381000068, 51.44398309500008], [4.486173741000073, 51.47765454300003], [4.527887926000062, 51.47564765300007], [4.548223534000044, 51.42923219000005], [4.669544, 51.42638399900005], [4.759926, 51.50246449900004], [4.828632453000068, 51.48026361900003]], [[4.746438548000071, 51.438228277000064], [4.788102604000073, 51.39572254400008], [4.830543589000058, 51.414826600000026], [4.781879322000066, 51.445428090000064], [4.746438548000071, 51.438228277000064]]]}}, {"type": "Feature", "properties": {"NUTS_ID": "BE22", "LEVL_CODE": 2, "CNTR_CODE": "BE", "NAME_LATN": "Prov. Limburg (BE)", "NUTS_NAME": "Prov. Limburg (BE)", "MOUNT_TYPE": 0, "URBN_TYPE": 0, "COAST_TYPE": 0, "name": "Limburg (BE)"}, "geometry": {"type": "MultiPolygon", "coordinates": [[[[5.887123837000047, 50.71852777600003], [5.819052, 50.71455749900008], [5.769941927000048, 50.74665214700008], [5.682000500000072, 50.75744649900008], [5.773966918000042, 50.774515059000066], [5.892073, 50.75523749900003], [5.887123837000047, 50.71852777600003]]], [[[5.687622, 50.811923999000044], [5.431686500000069, 50.71980299900008], [5.377119783000069, 50.745477433000076], [5.236913, 50.727272999000036], [5.103480500000046, 50.70906399900008], [5.168050987000072, 50.886300239000036], [5.063702797000076, 50.94088406900005], [5.121158865000041, 51.02007690900007], [4.981574500000022, 51.03488549900004], [5.020244329000036, 51.07216528500004], [5.261073500000066, 51.14696499900003], [5.219441446000076, 51.22582278900006], [5.237716500000033, 51.26160049900005], [5.498431442000026, 51.29581824300004], [5.547684841000034, 51.26881508400004], [5.566283500000054, 51.22083649900003], [5.835203339000032, 51.15624788800005], [5.798274, 51.05985349900004], [5.766125500000044, 51.00871549900006], [5.732599490000041, 50.92736713100004], [5.653808039000069, 50.86560572700006], [5.687622, 50.811923999000044]]]]}}, {"type": "Feature", "properties": {"NUTS_ID": "NL34", "LEVL_CODE": 2, "CNTR_CODE": "NL", "NAME_LATN": "Zeeland", "NUTS_NAME": "Zeeland", "MOUNT_TYPE": 0, "URBN_TYPE": 0, "COAST_TYPE": 0, "name": "Zeeland"}, "geometry": {"type": "MultiPolygon", "coordinates": [[[[4.20045213800006, 51.601501315000064], [4.279565, 51.376017499000056], [4.243669500000067, 51.37472949900007], [3.974970904000031, 51.452968085000066], [3.826961920000031, 51.39267903700005], [3.704043524000042, 51.44982936100007], [3.563542933000065, 51.447317815000076], [3.459761712000045, 51.53003572000006], [3.560867765000069, 51.58507982900005], [3.81102254700005, 51.59978307700004], [4.115813739000032, 51.44417290200005], [4.208037096000055, 51.44593771800004], [4.182627771000057, 51.50677799300007], [4.006757980000032, 51.57534815500003], [4.039716166000062, 51.62010659200007], [3.831095294000022, 51.68293399600003], [3.70103096400004, 51.691162390000045], [3.723859904000051, 51.729810014000066], [3.839083, 51.75829699900004], [3.988738670000032, 51.763447763000045], [4.054452041000047, 51.698232844000074], [4.105211423000071, 51.68848638400004], [4.152647257000069, 51.68383401300008], [4.242535500000031, 51.64712099900004], [4.20045213800006, 51.601501315000064]]], [[[3.516326481000021, 51.404424763000065], [3.859267985000031, 51.339096606000055], [3.993924801000048, 51.39811417200008], [4.105211423000071, 51.35619917100007], [4.192037867000067, 51.37015497700003], [4.234817500000077, 51.348253999000065], [4.215951889000053, 51.33309281500004], [4.165755500000046, 51.29272849900008], [4.105211423000071, 51.265399184000046], [3.977666500000055, 51.22513199900004], [3.856339500000047, 51.21105599900005], [3.601747522000039, 51.300566880000076], [3.534311144000071, 51.28951247100008], [3.500282427000059, 51.24675065500003], [3.380661, 51.27429949900005], [3.365787500000067, 51.36983549900003], [3.516326481000021, 51.404424763000065]]]]}}, {"type": "Feature", "properties": {"NUTS_ID": "NL41", "LEVL_CODE": 2, "CNTR_CODE": "NL", "NAME_LATN": "Noord-Brabant", "NUTS_NAME": "Noord-Brabant", "MOUNT_TYPE": 0, "URBN_TYPE": 0, "COAST_TYPE": 0, "name": "Noord Brabant"}, "geometry": {"type": "MultiPolygon", "coordinates": [[[[5.597879500000033, 51.82808299900006], [5.765376422000031, 51.75684368100008], [5.865158500000064, 51.757407999000066], [5.950750371000026, 51.702788844000054], [6.039160817000038, 51.57018351900007], [5.838077, 51.566467499000055], [5.920195892000038, 51.39020513100007], [5.840245500000037, 51.34692399900007], [5.676867665000032, 51.31294095900006], [5.609863777000044, 51.23342553100008], [5.566283500000054, 51.22083649900003], [5.547684841000034, 51.26881508400004], [5.498431442000026, 51.29581824300004], [5.237716500000033, 51.26160049900005], [5.225900459000059, 51.30946306000004], [5.144811685000036, 51.32092401400007], [5.087797335000062, 51.382296376000056], [5.10218, 51.42900499900003], [5.041508126000053, 51.47912345900005], [4.899390513000071, 51.40588742800003], [4.841045910000048, 51.427809988000035], [4.828632453000068, 51.48026361900003], [4.759926, 51.50246449900004], [4.669544, 51.42638399900005], [4.548223534000044, 51.42923219000005], [4.527887926000062, 51.47564765300007], [4.486173741000073, 51.47765454300003], [4.389655381000068, 51.44398309500008], [4.405944964000071, 51.36515723600007], [4.279565, 51.376017499000056], [4.20045213800006, 51.601501315000064], [4.242535500000031, 51.64712099900004], [4.34301429900006, 51.659035293000045], [4.42461675800007, 51.703552409000054], [4.620420500000023, 51.71412649900003], [4.645137500000033, 51.719066499000064], [4.67629450000004, 51.72491849900007], [4.79206565100003, 51.794804327000065], [5.000534, 51.82093799900008], [5.121900981000067, 51.77571652800003], [5.128057500000068, 51.73760999900003], [5.306597918000023, 51.74129250500005], [5.40581333800003, 51.813616695000064], [5.597879500000033, 51.82808299900006]]], [[[4.830543589000058, 51.414826600000026], [4.788102604000073, 51.39572254400008], [4.746438548000071, 51.438228277000064], [4.781879322000066, 51.445428090000064], [4.830543589000058, 51.414826600000026]]]]}}, {"type": "Feature", "properties": {"NUTS_ID": "NL42", "LEVL_CODE": 2, "CNTR_CODE": "NL", "NAME_LATN": "Limburg (NL)", "NUTS_NAME": "Limburg (NL)", "MOUNT_TYPE": 0, "URBN_TYPE": 0, "COAST_TYPE": 0, "name": "Limburg (NL)"}, "geometry": {"type": "Polygon", "coordinates": [[[6.072657, 51.24258749900008], [6.089336081000056, 51.17901841500003], [6.174812, 51.18451349900005], [5.963342438000041, 51.04807675400008], [5.900039583000023, 51.058977766000055], [5.877085, 51.03210099900008], [5.909806912000022, 50.986444076000055], [6.00912829300006, 50.98192359500007], [6.030686148000029, 50.93437655200006], [6.086947500000065, 50.91313499900008], [6.071928093000054, 50.85841095300003], [6.010228014000063, 50.80356607700003], [6.020999, 50.75429549900008], [5.892073, 50.75523749900003], [5.773966918000042, 50.774515059000066], [5.682000500000072, 50.75744649900008], [5.687622, 50.811923999000044], [5.653808039000069, 50.86560572700006], [5.732599490000041, 50.92736713100004], [5.766125500000044, 51.00871549900006], [5.798274, 51.05985349900004], [5.835203339000032, 51.15624788800005], [5.566283500000054, 51.22083649900003], [5.609863777000044, 51.23342553100008], [5.676867665000032, 51.31294095900006], [5.840245500000037, 51.34692399900007], [5.920195892000038, 51.39020513100007], [5.838077, 51.566467499000055], [6.039160817000038, 51.57018351900007], [5.950750371000026, 51.702788844000054], [5.865158500000064, 51.757407999000066], [5.953192, 51.74784599900005], [6.102653047000047, 51.65622762000004], [6.105893465000065, 51.600734715000044], [6.204204436000055, 51.51871605200006], [6.224405, 51.36497899900007], [6.072657, 51.24258749900008]]]}}]}